[{"OBJECT_NAME":"GEOSCAN 5 (RS92S5)","OBJECT_ID":"2025-155R","EPOCH":"2026-03-09T22:01:07.273920","MEAN_MOTION":15.30265233,"ECCENTRICITY":0.00070849,"INCLINATION":97.4462,"RA_OF_ASC_NODE":37.7456,"ARG_OF_PERICENTER":154.5846,"MEAN_ANOMALY":205.5745,"EPHEMERIS_TYPE":0,"CLASSIFICATION_TYPE":"U","NORAD_CAT_ID":64891,"ELEMENT_SET_NO":999,"REV_AT_EPOCH":6562,"BSTAR":0.00068639307,"MEAN_MOTION_DOT":0.00020065,"MEAN_MOTION_DDOT":0},{"OBJECT_NAME":"STARLINK-35747","OBJECT_ID":"2025-244B","EPOCH":"2026-03-09T18:04:51.790944","MEAN_MOTION":15.30181463,"ECCENTRICITY":8.528e-5,"INCLINATION":53.1587,"RA_OF_ASC_NODE":229.9645,"ARG_OF_PERICENTER":97.5769,"MEAN_ANOMALY":262.5329,"EPHEMERIS_TYPE":0,"CLASSIFICATION_TYPE":"U","NORAD_CAT_ID":66207,"ELEMENT_SET_NO":999,"REV_AT_EPOCH":2166,"BSTAR":0.00072273941,"MEAN_MOTION_DOT":0.00021095,"MEAN_MOTION_DDOT":0}]
